satname,norad_id,inclination_deg,eccentricity,mean_motion_rev_per_day,perigee_km,apogee_km,l1,l2
STARLINK-1573,46061,53.1609,0.0003069,15.31693908,468.6562292976978,472.8600811439719,1 46061U 20055AL  26181.94047576  .00005746  00000+0  19683-3 0  9990,2 46061  53.1609 306.9833 0003069  15.4918 344.6176 15.31693908326424
STARLINK-1577,46063,53.1589,0.0001086,15.3170547,469.97990321793077,471.46747575968675,1 46063U 20055AN  26181.77268568  .00008331  00000+0  27989-3 0  9990,2 46063  53.1589 307.7602 0001086  70.1026 290.0093 15.31705470326397
STARLINK-1583,46064,53.1606,0.0001238,15.31706224,469.8735531932407,471.569330543447,1 46064U 20055AP  26181.06898572  .00003490  00000+0  12415-3 0  9996,2 46064  53.1606 311.5374 0001238  89.6766 270.4378 15.31706224326275
STARLINK-1536,46070,53.1604,9.31e-05,15.31709044,470.07540772659195,471.35066360323253,1 46070U 20055AV  26181.72277425  .00006692  00000+0  22715-3 0  9995,2 46070  53.1604 295.8799 0000931  83.4005 276.7102 15.31709044326550
STARLINK-1542,46073,53.1593,9.82e-05,15.31719662,470.0088304883957,471.35393841910263,1 46073U 20055AY  26181.68189127  .00007807  00000+0  26293-3 0  9998,2 46073  53.1593 299.0404 0000982  98.6669 261.4444 15.31719662326499
STARLINK-1549,46074,53.0521,0.0001064,15.33464406,464.7572750570753,466.2135979115583,1 46074U 20055AZ  26181.05917911  .00047222  00000+0  14419-2 0  9991,2 46074  53.0521 298.8924 0001064  71.3678 288.7439 15.33464406326428
STARLINK-1551,46075,53.1611,0.0001336,15.31700053,469.82482728995546,471.65484718086554,1 46075U 20055BA  26181.06128042  .00001375  00000+0  56052-4 0  9992,2 46075  53.1611 298.8968 0001336  77.0588 283.0562 15.31700053326449
STARLINK-1552,46076,53.1613,8.6e-05,15.31710732,470.1190032085533,471.2970045492211,1 46076U 20055BB  26181.69973839  .00002976  00000+0  10757-3 0  9993,2 46076  53.1613 295.5097 0000860  62.2955 297.8134 15.31710732326537
STARLINK-1559,46077,53.0216,0.0003122,15.40537865,442.3907754400907,446.6508429761607,1 46077U 20055BC  26181.45207621  .00049506  00000+0  12025-2 0  9996,2 46077  53.0216 264.5736 0003122 350.6879   9.4067 15.40537865326902
STARLINK-1566,46079,53.1591,0.0001032,15.31703254,470.0234921332758,471.43709834301353,1 46079U 20055BE  26181.70439150  .00008633  00000+0  28960-3 0  9992,2 46079  53.1591 295.3406 0001032  75.8982 284.2134 15.31703254326552
STARLINK-1568,46080,53.0552,0.0003337,15.56139098,396.58195371245984,401.104910452832,1 46080U 20055BF  26181.49862632  .00037810  00000+0  53543-3 0  9999,2 46080  53.0552 210.7492 0003337  72.3014 287.8361 15.56139098327709
STARLINK-1578,46082,53.1611,0.000107,15.31720935,469.94476662969737,471.4104129519128,1 46082U 20055BH  26181.70877358  .00008517  00000+0  28573-3 0  9993,2 46082  53.1611 295.8367 0001070  62.9139 297.1972 15.31720935326540
STARLINK-1579,46083,53.1602,0.0001249,15.31714451,469.8414985289537,471.5523372416419,1 46083U 20055BJ  26181.69506538  .00003048  00000+0  10990-3 0  9999,2 46083  53.1602 295.4353 0001249  89.2160 270.8984 15.31714451326543
STARLINK-1622,46128,53.0096,0.0006071,15.96456905,280.2132192608724,288.30269922038315,1 46128U 20057M   26182.00001157  .00433927  87934-4  10128-2 0  9995,2 46128  53.0096  17.9966 0006071 247.5969 263.7032 15.96456905  6021
STARLINK-1623,46129,53.0377,0.000309,15.81186646,325.0118747282231,329.15570117517655,1 46129U 20057N   26182.00001157  .00154688  00000+0  76198-3 0  9994,2 46129  53.0377  58.3746 0003090 155.3645 251.6127 15.81186646  5952
STARLINK-1596,46141,53.034,0.0004131,15.63921909,373.5508395299139,379.13138934806466,1 46141U 20057AA  26180.91041116  .00119458  00000+0  12332-2 0  9990,2 46141  53.0340  48.9072 0004131 129.4046 230.7334 15.63921909324723
STARLINK-1597,46142,53.0377,0.0003837,15.80503918,326.4410779268055,331.58814607385466,1 46142U 20057AB  26182.00001157  .00095480  00000+0  48995-3 0  9997,2 46142  53.0377  98.1993 0003837 134.6144   5.9021 15.80503918  6000
STARLINK-1608,46146,53.1569,0.0005357,15.38327283,447.3969694680163,454.71376617089754,1 46146U 20057AF  26181.86937167  .00106560  00000+0  27498-2 0  9999,2 46146  53.1569 141.1367 0005357  60.6349 299.5190 15.38327283323547
STARLINK-1667,46155,53.0007,0.0012367,16.17376209,218.5171677005119,234.8535353047182,1 46155U 20057AQ  26181.94470737  .01716696  11742-4  10407-2 0  9993,2 46155  53.0007  15.6482 0012367 271.4429  88.5191 16.17376209326502
STARLINK-1545,46156,53.0325,0.0009093,16.00641581,266.5933458117197,278.6884504973041,1 46156U 20057AR  26181.87887338  .00569507  15540-3  10464-2 0  9993,2 46156  53.0325  53.7824 0009093 250.4338 109.5710 16.00641581325989
STARLINK-1595,46159,53.0378,0.0004445,15.77874411,333.4794904310238,339.44877083615575,1 46159U 20057AU  26182.00001157  .00090962  00000+0  52607-3 0  9990,2 46159  53.0378 101.3537 0004445 118.1665   7.0455 15.77874411  5997
STARLINK-1598,46160,53.0439,5.38e-05,15.7660269,339.7129649260387,340.43584447318517,1 46160U 20057AV  26181.01018479  .00125277  00000+0  76233-3 0  9996,2 46160  53.0439  92.5626 0000538 238.3014 121.7953 15.76602690325369
STARLINK-1626,46167,53.0379,0.0002911,15.81326635,324.73628193641434,328.6398310843151,1 46167U 20057BC  26182.00001157  .00043664  00000+0  21897-3 0  9993,2 46167  53.0379  96.4319 0002911 185.2502  47.5702 15.81326635  5999
STARLINK-1633,46171,53.0294,0.0006459,15.92893408,289.8809955413117,298.5003084021291,1 46171U 20057BG  26182.00001157  .00304615  46490-4  86307-3 0  9999,2 46171  53.0294  55.8501 0006459 244.1914   8.7092 15.92893408  6020
STARLINK-1635,46172,53.0274,0.0011332,16.0886042,242.4603319542848,257.48227661511464,1 46172U 20057BH  26181.89818453  .00883328  44204-3  98032-3 0  9992,2 46172  53.0274  52.6279 0011332 252.9012 107.0780 16.08860420326004
STARLINK-1640,46173,53.0372,0.0003986,15.78022557,333.36760353364116,338.72014852801294,1 46173U 20057BJ  26182.00001157  .00084397  00000+0  48559-3 0  9992,2 46173  53.0372 102.3706 0003986 113.5278 173.0143 15.78022557  5999
STARLINK-1641,46174,53.0448,0.0001636,15.66170182,368.7714538390974,370.9794035057603,1 46174U 20057BK  26182.00001157  .00118256  00000+0  11170-2 0  9993,2 46174  53.0448  95.8523 0001636 178.6999 307.3141 15.66170182  5961
STARLINK-1695,46329,53.0387,0.0002101,15.81196191,325.6480423542007,328.46556479046194,1 46329U 20062E   26182.00001157  .00122014  00000+0  60385-3 0  9991,2 46329  53.0387 139.3235 0002101 164.1027 288.2556 15.81196191  5994
